GLOBALSTAR M035         
1 25851U 99037A   24123.60646201  .00000004  00000+0  25617-2 0  9992
2 25851  51.9945 250.5900 0013336  39.8056 333.4211 11.04530300 50890
GLOBALSTAR M032         
1 25852U 99037B   24123.26401425 -.00000062  00000+0  15910-3 0  9993
2 25852  51.9916 104.9019 0009687 194.4905 165.5618 11.19051769 88784
GLOBALSTAR M051         
1 25853U 99037C   24123.26893924 -.00000055  00000+0  41119-3 0  9995
2 25853  51.9804 312.1744 0001527 169.3383 190.7461 11.42195891 85431
GLOBALSTAR M030         
1 25854U 99037D   24123.47526245 -.00000056  00000+0  40989-3 0  9993
2 25854  51.9840 143.8978 0003706  32.5518 327.5526 11.55095253102585
GLOBALSTAR M048         
1 25872U 99041A   24123.55436698 -.00000065  00000+0  13716-3 0  9997
2 25872  51.9362 230.6408 0013885 192.3394 180.3219 11.33845679 78401
GLOBALSTAR M026         
1 25873U 99041B   24123.44211600  .00000005  00000+0  25370-2 0  9991
2 25873  52.0050  13.2396 0000969 305.4106 225.9235 11.06835931103005
GLOBALSTAR M043         
1 25874U 99041C   24123.47691492 -.00000009  00000+0  17576-2 0  9990
2 25874  51.9416 322.1008 0012340 335.3563  30.8259 11.25681376 76626
GLOBALSTAR M028         
1 25875U 99041D   24123.01860432 -.00000074  00000+0  16988-3 0  9992
2 25875  51.9641 339.0691 0062613 258.4017 100.9811 12.50554284138739
